EDRS-C                  
1 44475U 19049A   25281.50971139 -.00000260  00000+0  00000+0 0  9997
2 44475   0.0221 142.4073 0001124  69.2224 131.7670  1.00269455 22680
INTELSAT 39 (IS-39)     
1 44476U 19049B   25281.53015104  .00000035  00000+0  00000+0 0  9991
2 44476   0.0173 232.2956 0000404  96.2878 301.6381  1.00269779 22608
AMOS-17                 
1 44479U 19050A   25281.28208961  .00000000  00000+0  00000+0 0  9995
2 44479   0.0098 216.5049 0003177 346.6796 292.5262  1.00270975 22668
AEHF-5 (USA 292)        
1 44481U 19051A   25281.54130874 -.00000259  00000+0  00000+0 0  9992
2 44481   1.7849 320.4124 0065889   5.5923 339.3645  1.00273790 22734
EUTELSAT 5 WEST B       
1 44624U 19067A   25279.92180882 -.00000039  00000+0  00000+0 0  9997
2 44624   0.0665   8.1967 0003283 192.1601 142.3413  1.00271877 21897
TJS-4                   
1 44637U 19070A   25281.53794459 -.00000168  00000+0  00000+0 0  9999
2 44637   0.0788  88.0934 0002916 130.1539  76.3836  1.00270604 21940
BEIDOU-3 IGSO-3         
1 44709U 19073A   25280.41319182 -.00000173  00000+0  00000+0 0  9990
2 44709  55.2369 283.6302 0045342 192.0326 167.8514  1.00263917 21926
TIBA-1                  
1 44800U 19080A   25281.26294824  .00000158  00000+0  00000+0 0  9991
2 44800   0.0648  16.4090 0002435 188.6586 302.2446  1.00271585 21533
INMARSAT GX5            
1 44801U 19080B   25281.28087625  .00000077  00000+0  00000+0 0  9993
2 44801   0.0581   4.8061 0002668 204.1036 280.4077  1.00273441  4262
JCSAT-18 (KACIFIC 1)    
1 44868U 19091A   25279.66704497 -.00000198  00000+0  00000+0 0  9995
2 44868   0.0456 359.5845 0000351 247.0565 159.0888  1.00271938 21467
ELEKTRO-L 3             
1 44903U 19095A   25281.53414804 -.00000095  00000+0  00000+0 0  9994
2 44903   0.0479 348.3324 0001871 261.0260  36.4069  1.00271549 21182
SHIJIAN-20 (SJ-20)      
1 44910U 19097A   25279.69705993 -.00000111  00000+0  00000+0 0  9999
2 44910   4.2652  78.1728 0002751 171.5179  94.8244  1.00271870 21154
TJS-5                   
1 44978U 20002A   25281.54748770 -.00000340  00000+0  00000+0 0  9992
2 44978   0.1742  90.9813 0004876  81.3977 149.6855  1.00270730 21177
GSAT-30                 
1 45026U 20005A   25281.53794448 -.00000163  00000+0  00000+0 0  9995
2 45026   0.0658  90.7047 0001869  82.0487 121.3380  1.00270896 20988
EUTELSAT KONNECT        
1 45027U 20005B   25278.99647605  .00000052  00000+0  00000+0 0  9990
2 45027   0.0650  96.4005 0001767  95.5385 188.9228  1.00275330 21777
JCSAT-17                
1 45245U 20013A   25281.50851140 -.00000319  00000+0  00000+0 0  9990
2 45245   5.4152 354.3440 0003846 198.3075 143.8092  1.00272763 20700
GEO-KOMPSAT-2B          
1 45246U 20013B   25280.30505049 -.00000341  00000+0  00000+0 0  9997
2 45246   0.0359 332.5718 0001915 265.6166  16.1102  1.00270584 20748
BEIDOU-3 G2             
1 45344U 20017A   25281.53565537 -.00000138  00000+0  00000+0 0  9998
2 45344   2.8763  42.5083 0002137 257.3428 350.4394  1.00270264 20736
AEHF-6 (USA 298)        
1 45465U 20022B   25281.50662200 -.00000300  00000+0  00000+0 0  9991
2 45465   3.1154 298.7988 0044279   6.8022  31.9589  1.00271452 20497
BEIDOU-3 G3             
1 45807U 20040A   25281.30063635 -.00000351  00000+0  00000+0 0  9992
2 45807   1.8280  65.8513 0004043 309.4870 220.6985  1.00271468 19545
APSTAR-6D               
1 45863U 20045A   25275.52486510 -.00000317  00000+0  00000+0 0  9999
2 45863   0.0452  98.3474 0002250 353.8946 242.2520  1.00271136 19278
KOREASAT 116            
1 45920U 20048A   25280.33350554 -.00000359  00000+0  00000+0 0  9995
2 45920   0.0337 271.3294 0001506 296.9209  44.2837  1.00269624 19101
EXPRESS 103             
1 45985U 20053A   25278.80006983  .00000000  00000+0  00000+0 0  9997
2 45985   0.0225 190.3556 0000405  34.1640 174.7193  1.00268176 19090
EXPRESS 80              
1 45986U 20053B   25279.73443451 -.00000134  00000+0  00000+0 0  9995
2 45986   0.0252 240.3985 0002529 163.8088 315.8432  1.00272206 19091
BSAT-4B                 
1 46112U 20056A   25281.54842450 -.00000348  00000+0  00000+0 0  9991
2 46112   0.0671 104.7248 0003707  66.9746 153.0229  1.00271714 18869
MEV-2                   
1 46113U 20056B   25281.20712260  .00000000  00000+0  00000+0 0  9994
2 46113   0.0128 181.1916 0001332  65.4807 203.9722  1.00269570 19177
GALAXY 30 (G-30)        
1 46114U 20056C   25281.49551862  .00000000  00000+0  00000+0 0  9995
2 46114   0.0148 185.5409 0002698  24.4919 220.7241  1.00271708 18763
GAOFEN-13 01            
1 46610U 20071A   25281.30219637 -.00000361  00000+0  00000+0 0  9995
2 46610   0.0461  30.4611 0038433 171.3602  42.4018  1.00273210 18392
TIANTONG-1 2            
1 46916U 20082A   25281.55341932 -.00000355  00000+0  00000+0 0  9990
2 46916   1.2440 304.1508 0002571 322.2916  75.1512  1.00272963 18134
LUCAS (JDRS-1)          
1 47202U 20089A   25281.54032610 -.00000233  00000+0  00000+0 0  9990
2 47202   0.0662  95.1856 0002470 115.5191  92.0299  1.00268344 17895
SXM-7                   
1 47240U 20096A   25279.40636971 -.00000203  00000+0  00000+0 0  9999
2 47240   0.0130 155.2730 0004391 334.3009 306.8666  1.00270139  4894
CMS-01                  
1 47256U 20099A   25281.08102205 -.00000163  00000+0  00000+0 0  9999
2 47256   0.0912  90.3951 0007502 166.4026 232.3579  1.00271274 17670
TURKSAT 5A              
1 47306U 21001A   25280.92796803  .00000157  00000+0  00000+0 0  9996
2 47306   0.0354  85.9024 0000246 188.9889 106.9337  1.00271130 17434
TIANTONG-1 3            
1 47321U 21003A   25280.48101137 -.00000155  00000+0  00000+0 0  9995
2 47321   2.0421 325.8007 0005504 273.6125  31.6395  1.00269551 17423
TJS-6                   
1 47613U 21010A   25281.47614167  .00000044  00000+0  00000+0 0  9995
2 47613   0.0625 244.9506 0000987  58.2579  64.0166  1.00270502 17284
SBIRS GEO-5 (USA 315)   
1 48618U 21042A   25281.54043380 -.00000272  00000+0  00000+0 0  9991
2 48618   5.4397 327.3863 0006033 212.4247 125.9728  1.00269644 16242
FENGYUN 4B              
1 48808U 21047A   25281.54567438 -.00000328  00000+0  00000+0 0  9994
2 48808   0.1957 279.0059 0010338  74.2469 325.2030  1.00270722 16060
SXM-8                   
1 48838U 21049A   25280.90500127 -.00000203  00000+0  00000+0 0  9992
2 48838   0.0019 130.1881 0004182 270.4159 216.8613  1.00272344 16061
TIANLIAN 1-05           
1 49011U 21063A   25281.28200294  .00000111  00000+0  00000+0 0  9993
2 49011   0.9392  82.2169 0005118 148.5501 264.7321  1.00271449 15556
STAR ONE D2             
1 49055U 21069A   25281.44942630 -.00000263  00000+0  00000+0 0  9991
2 49055   0.0115 205.4418 0002743 341.6112 282.0854  1.00270623 15411
EUTELSAT QUANTUM        
1 49056U 21069B   25281.50221116  .00000000  00000+0  00000+0 0  9996
2 49056   0.0118 243.2686 0002911 347.4648  15.1294  1.00271964 15408
ZHONGXING-2E            
1 49062U 21071A   25281.54318490 -.00000289  00000+0  00000+0 0  9992
2 49062   0.0428 340.5667 0001682 259.5079  70.9653  1.00268996 15515
TJS-7                   
1 49115U 21077A   25281.51294458 -.00000122  00000+0  00000+0 0  9997
2 49115   0.1501 266.5064 0001269 242.6169 313.4656  1.00272193  7028
CHINASAT 9B             
1 49125U 21080A   25280.44955521 -.00000310  00000+0  00000+0 0  9997
2 49125   0.0295 108.9843 0003586  91.8065  78.8235  1.00269268 15118
SHIJIAN-21 (SJ-21)      
1 49330U 21094A   25281.31842755 -.00000342  00000+0  00000+0 0  9996
2 49330   4.5435  62.6651 0055912 167.2124  29.8120  1.00284281  2777
SES-17                  
1 49332U 21095A   25281.45155462 -.00000270  00000+0  00000+0 0  9996
2 49332   0.0124  43.9429 0001624 178.3609 250.5011  1.00269130 15336
SYRACUSE 4A             
1 49333U 21095B   25281.43037693  .00000137  00000+0  00000+0 0  9991
2 49333   0.0204 242.9152 0001509 300.1289  34.7367  1.00271511 15434
QZS-1R (MICHIBIKI-1R)   
1 49336U 21096A   25280.79840021 -.00000193  00000+0  00000+0 0  9993
2 49336  36.9371  83.3372 0746575 270.1366  86.6722  1.00278789 14481
ZHONGXING-1D            
1 49505U 21114A   25281.55531013  .00000000  00000+0  00000+0 0  9991
2 49505   0.0120  39.5995 0003187 236.5305  71.3545  1.00266506 14300
STPSAT-6                
1 49817U 21118A   25281.49474425 -.00000044  00000+0  00000+0 0  9996
2 49817   0.0350  85.7536 0002190 188.6673 169.3956  1.00272372 14046
LDPE-1                  
1 49818U 21118B   25281.12906956 -.00000069  00000+0  00000+0 0  9993
2 49818   3.0988  82.0270 0012438  39.9526 359.3988  1.00943275 14114
EXPRESS AMU-7           
1 50001U 21123A   25280.30834383 -.00000240  00000+0  00000+0 0  9999
2 50001   0.0013 183.4645 0000272 308.1278 140.6439  1.00271153 14005
EXPRESS AMU-3           
1 50002U 21123B   25279.67064509 -.00000319  00000+0  00000+0 0  9990
2 50002   0.0217 234.0822 0000171 224.2102 261.7398  1.00271565  4492
TIANLIAN 2-02           
1 50005U 21124A   25280.54489470 -.00000011  00000+0  00000+0 0  9999
2 50005   0.1443  94.7324 0004478 141.8723 146.9978  1.00272200 14083
TURKSAT 5B              
1 50212U 21126A   25279.64563821  .00000148  00000+0  00000+0 0  9993
2 50212   0.0767 337.8069 0002403 309.3076   2.9050  1.00272002 13751
INMARSAT 6-F1           
1 50319U 21128A   25279.01164279 -.00000171  00000+0  00000+0 0  9995
2 50319   0.0185 212.9746 0000132  85.4458 164.4783  1.00273311 13707
SHIYAN-12 01 (SY-12 01) 
1 50321U 21129A   25279.73977117 -.00000357  00000+0  00000+0 0  9997
2 50321   3.0153  83.4486 0002542 174.2620 137.5408  1.00453625 13955
SHIYAN-12 02 (SY-12 02) 
1 50322U 21129B   25279.75594002 -.00000352  00000+0  00000+0 0  9993
2 50322   3.0147  83.4426 0002555 162.4138 167.5498  1.00111036 13959
TJS-9                   
1 50574U 21135A   25281.55830742 -.00000297  00000+0  00000+0 0  9992
2 50574   0.0444  55.0970 0001920 217.5245  83.1000  1.00270843 13909
USA 324                 
1 51280U 22006A   25269.08110703 -.00000176  00000+0  00000+0 0  9993
2 51280   0.1355  77.7618 0000643 186.4690  99.0875  1.00571648 13481
